NORAD_CAT_ID,OBJECT_NAME,OBJECT_TYPE,EPOCH,MEAN_MOTION,ECCENTRICITY,INCLINATION,RA_OF_ASC_NODE,ARG_OF_PERICENTER,MEAN_ANOMALY,BSTAR,MEAN_MOTION_DOT,MEAN_MOTION_DDOT,TLE_LINE0,TLE_LINE1,TLE_LINE2,SEMIMAJOR_AXIS,PERIOD,APOGEE,PERIGEE,DECAYED
56802.0,STARLINK-6070,PAYLOAD,2024-06-12 04:46:50,14.98334725,0.0002827,69.9996,126.7404,267.1084,92.9752,1.1563e-05,4.5e-07,0.0,0 STARLINK-6070,1 56802U 23078AM  24164.19919119  .00000045  00000-0  11563-4 0  9997,2 56802  69.9996 126.7404 0002827 267.1084  92.9752 14.98334725 58241,6950.178,96.107,574.008,570.078,0.0
56802.0,STARLINK-6070,PAYLOAD,2024-06-12 06:22:58,14.98335366,0.0002815,69.9996,126.5722,267.023,93.0607,1.8994e-05,1.34e-06,0.0,0 STARLINK-6070,1 56802U 23078AM  24164.26595033  .00000134  00000-0  18994-4 0  9994,2 56802  69.9996 126.5722 0002815 267.0230  93.0607 14.98335366 57995,6950.176,96.107,573.998,570.085,0.0
56802.0,STARLINK-6070,PAYLOAD,2024-06-12 22:24:19,14.98326961,0.0002676,70.0,124.8902,261.7452,98.3404,-3.206e-05,-4.75e-06,0.0,0 STARLINK-6070,1 56802U 23078AM  24164.93355601 -.00000475  00000-0 -32060-4 0  9993,2 56802  70.0000 124.8902 0002676 261.7452  98.3404 14.98326961 58093,6950.202,96.107,573.927,570.207,0.0
56802.0,STARLINK-6070,PAYLOAD,2024-06-13 04:48:51,14.98327312,0.0002678,70.0,124.217,261.4316,98.654,-2.7082e-05,-4.16e-06,0.0,0 STARLINK-6070,1 56802U 23078AM  24165.20059593 -.00000416  00000-0 -27082-4 0  9998,2 56802  70.0000 124.2170 0002678 261.4316  98.6540 14.98327312 58390,6950.201,96.107,573.927,570.205,0.0
56802.0,STARLINK-6070,PAYLOAD,2024-06-13 14:25:39,14.98329185,0.00027,70.0,123.2061,267.4347,92.6503,-1.486e-05,-2.7e-06,0.0,0 STARLINK-6070,1 56802U 23078AM  24165.60115494 -.00000270  00000-0 -14860-4 0  9993,2 56802  70.0000 123.2061 0002700 267.4347  92.6503 14.98329185 58195,6950.195,96.107,573.937,570.184,0.0
56802.0,STARLINK-6070,PAYLOAD,2024-06-13 22:26:19,14.98333241,0.0002713,69.9999,122.3635,268.6744,91.4105,-1.0062e-05,-2.13e-06,0.0,0 STARLINK-6070,1 56802U 23078AM  24165.93495188 -.00000213  00000-0 -10062-4 0  9997,2 56802  69.9999 122.3635 0002713 268.6744  91.4105 14.98333241 58243,6950.183,96.107,573.933,570.162,0.0
56802.0,STARLINK-6070,PAYLOAD,2024-06-14 14:27:40,14.98330071,0.0002929,69.9994,120.6798,265.7815,94.3009,-5.8334e-05,-7.89e-06,0.0,0 STARLINK-6070,1 56802U 23078AM  24166.60255353 -.00000789  00000-0 -58334-4 0  9992,2 56802  69.9994 120.6798 0002929 265.7815  94.3009 14.98330071 58349,6950.193,96.107,574.093,570.022,0.0
56802.0,STARLINK-6070,PAYLOAD,2024-06-14 20:52:13,14.98325695,0.000286,69.9994,120.0066,270.7349,89.3482,-2.9754e-06,-1.28e-06,0.0,0 STARLINK-6070,1 56802U 23078AM  24166.86959578 -.00000128  00000-0 -29754-5 0  9992,2 56802  69.9994 120.0066 0002860 270.7349  89.3482 14.98325695 58382,6950.206,96.107,574.059,570.083,0.0
56802.0,STARLINK-6070,PAYLOAD,2024-06-15 06:29:01,14.98327023,0.000292,69.9994,118.9962,269.6385,90.4439,5.0007e-06,-3.3e-07,0.0,0 STARLINK-6070,1 56802U 23078AM  24167.27015518 -.00000033  00000-0  50007-5 0  9994,2 56802  69.9994 118.9962 0002920 269.6385  90.4439 14.98327023 58446,6950.202,96.107,574.097,570.038,0.0
56802.0,STARLINK-6070,PAYLOAD,2024-06-15 22:30:21,14.98331336,0.0002939,69.9994,117.3129,269.4741,90.6081,2.9699e-05,2.61e-06,0.0,0 STARLINK-6070,1 56802U 23078AM  24167.93775141  .00000261  00000-0  29699-4 0  9996,2 56802  69.9994 117.3129 0002939 269.4741  90.6081 14.98331336 58546,6950.189,96.107,574.096,570.011,0.0
56802.0,STARLINK-6070,PAYLOAD,2024-06-16 06:31:01,14.98337588,0.0002949,69.9994,116.4716,269.9786,90.1035,5.021e-05,5.06e-06,0.0,0 STARLINK-6070,1 56802U 23078AM  24168.27154609  .00000506  00000-0  50210-4 0  9999,2 56802  69.9994 116.4716 0002949 269.9786  90.1035 14.98337588 58597,6950.169,96.107,574.084,569.985,0.0
56802.0,STARLINK-6070,PAYLOAD,2024-06-16 22:32:22,14.98325194,0.0002957,69.9994,114.7883,269.9869,90.0951,-5.7163e-06,-1.61e-06,0.0,0 STARLINK-6070,1 56802U 23078AM  24168.93915473 -.00000161  00000-0 -57163-5 0  9990,2 56802  69.9994 114.7883 0002957 269.9869  90.0951 14.98325194 58691,6950.208,96.107,574.128,570.018,0.0
56802.0,STARLINK-6070,PAYLOAD,2024-06-17 20:58:15,14.98331997,0.0002865,69.9998,112.4317,271.08,89.0031,-3.6527e-05,-5.29e-06,0.0,0 STARLINK-6070,1 56802U 23078AM  24169.87379235 -.00000529  00000-0 -36527-4 0  9992,2 56802  69.9998 112.4317 0002865 271.0800  89.0031 14.98331997 59099,6950.187,96.107,574.043,570.06,0.0
56802.0,STARLINK-6070,PAYLOAD,2024-06-17 22:34:23,14.98331853,0.0002868,69.9998,112.2634,271.0639,89.0191,-3.7188e-05,-5.37e-06,0.0,0 STARLINK-6070,1 56802U 23078AM  24169.94055234 -.00000537  00000-0 -37188-4 0  9993,2 56802  69.9998 112.2634 0002868 271.0639  89.0191 14.98331853 58842,6950.187,96.107,574.045,570.059,0.0
56802.0,STARLINK-6070,PAYLOAD,2024-06-18 12:59:35,14.98338921,0.0002843,70.0001,110.7488,271.2866,88.7968,-0.00012916,-1.634e-05,0.0,0 STARLINK-6070,1 56802U 23078AM  24170.54138844 -.00001634  00000-0 -12916-3 0  9990,2 56802  70.0001 110.7488 0002843 271.2866  88.7968 14.98338921 58938,6950.165,96.106,574.006,570.054,0.0
56802.0,STARLINK-6070,PAYLOAD,2024-06-18 21:00:16,14.98328534,0.0002829,70.0001,109.9071,273.0008,87.0827,3.7659e-05,3.56e-06,0.0,0 STARLINK-6070,1 56802U 23078AM  24170.87519070  .00000356  00000-0  37659-4 0  9990,2 56802  70.0001 109.9071 0002829 273.0008  87.0827 14.98328534 58988,6950.197,96.107,574.029,570.096,0.0
56802.0,STARLINK-6070,PAYLOAD,2024-06-19 03:24:48,14.9832963,0.0002756,70.0003,109.2342,270.0791,90.0052,6.4051e-05,6.71e-06,0.0,0 STARLINK-6070,1 56802U 23078AM  24171.14222914  .00000671  00000-0  64051-4 0  9995,2 56802  70.0003 109.2342 0002756 270.0791  90.0052 14.98329630 59285,6950.194,96.107,573.975,570.144,0.0
56802.0,STARLINK-6070,PAYLOAD,2024-06-19 13:01:37,14.98330457,0.0002713,70.0003,108.2242,269.8205,90.2643,1.7888e-05,1.2e-06,0.0,0 STARLINK-6070,1 56802U 23078AM  24171.54278964  .00000120  00000-0  17888-4 0  9990,2 56802  70.0003 108.2242 0002713 269.8205  90.2643 14.98330457 59087,6950.191,96.107,573.942,570.171,0.0
56802.0,STARLINK-6070,PAYLOAD,2024-06-19 22:38:25,14.98330543,0.0002706,70.0003,107.2144,269.6244,90.4605,-2.717e-05,-4.17e-06,0.0,0 STARLINK-6070,1 56802U 23078AM  24171.94335057 -.00000417  00000-0 -27170-4 0  9997,2 56802  70.0003 107.2144 0002706 269.6244  90.4605 14.98330543 59143,6950.191,96.107,573.937,570.175,0.0
56802.0,STARLINK-6070,PAYLOAD,2024-06-20 05:02:57,14.9833113,0.0002701,70.0004,106.5412,269.5439,90.541,-1.7804e-05,-3.05e-06,0.0,0 STARLINK-6070,1 56802U 23078AM  24172.21038971 -.00000305  00000-0 -17804-4 0  9992,2 56802  70.0004 106.5412 0002701 269.5439  90.5410 14.98331130 59445,6950.189,96.107,573.932,570.177,0.0
56802.0,STARLINK-6070,PAYLOAD,2024-06-20 22:40:26,14.98327913,0.0002702,70.0004,104.6898,269.3391,90.7459,-4.7734e-05,-6.62e-06,0.0,0 STARLINK-6070,1 56802U 23078AM  24172.94475234 -.00000662  00000-0 -47734-4 0  9990,2 56802  70.0004 104.6898 0002702 269.3391  90.7459 14.98327913 59290,6950.199,96.107,573.942,570.186,0.0
56802.0,STARLINK-6070,PAYLOAD,2024-06-21 05:04:58,14.98327086,0.0002715,70.0004,104.0164,268.0519,92.0329,-4.8776e-05,-6.75e-06,0.0,0 STARLINK-6070,1 56802U 23078AM  24173.21179299 -.00000675  00000-0 -48776-4 0  9994,2 56802  70.0004 104.0164 0002715 268.0519  92.0329 14.98327086 59597,6950.202,96.107,573.954,570.18,0.0
56802.0,STARLINK-6070,PAYLOAD,2024-06-21 22:42:27,14.98326989,0.0002837,70.0001,102.1649,268.2544,91.829,1.1716e-05,4.7e-07,0.0,0 STARLINK-6070,1 56802U 23078AM  24173.94615133  .00000047  00000-0  11716-4 0  9991,2 56802  70.0001 102.1649 0002837 268.2544  91.8290 14.98326989 59445,6950.202,96.107,574.039,570.095,0.0
56802.0,STARLINK-6070,PAYLOAD,2024-06-22 05:06:59,14.98331497,0.0002846,69.9998,101.4909,266.6412,93.4421,3.685e-05,3.47e-06,0.0,0 STARLINK-6070,1 56802U 23078AM  24174.21318785  .00000347  00000-0  36850-4 0  9994,2 56802  69.9998 101.4909 0002846 266.6412  93.4421 14.98331497 59741,6950.188,96.107,574.031,570.075,0.0
56802.0,STARLINK-6070,PAYLOAD,2024-06-22 22:44:28,14.98328765,0.0002867,70.0004,99.6401,271.4745,88.6086,5.1978e-05,5.27e-06,0.0,0 STARLINK-6070,1 56802U 23078AM  24174.94754985  .00000527  00000-0  51978-4 0  9998,2 56802  70.0004  99.6401 0002867 271.4745  88.6086 14.98328765 59593,6950.197,96.107,574.054,570.069,0.0
56802.0,STARLINK-6070,PAYLOAD,2024-06-23 05:08:59,14.98335956,0.0002691,70.0005,98.9664,270.0339,90.0512,0.00012696,1.422e-05,0.0,0 STARLINK-6070,1 56802U 23078AM  24175.21458232  .00001422  00000-0  12696-3 0  9993,2 56802  70.0005  98.9664 0002691 270.0339  90.0512 14.98335956 59890,6950.174,96.107,573.91,570.169,0.0
56802.0,STARLINK-6070,PAYLOAD,2024-06-23 22:46:28,14.98329923,0.0002472,70.0013,97.1173,252.6206,107.4683,4.1127e-05,3.98e-06,0.0,0 STARLINK-6070,1 56802U 23078AM  24175.94894575  .00000398  00000-0  41127-4 0  9990,2 56802  70.0013  97.1173 0002472 252.6206 107.4683 14.98329923 59744,6950.193,96.107,573.776,570.34,0.0
56802.0,STARLINK-6070,PAYLOAD,2024-06-24 03:34:53,14.98325909,0.000252,70.0011,96.6118,260.5727,99.5147,-1.4566e-05,-2.67e-06,0.0,0 STARLINK-6070,1 56802U 23078AM  24176.14923044 -.00000267  00000-0 -14566-4 0  9991,2 56802  70.0011  96.6118 0002520 260.5727  99.5147 14.98325909 60035,6950.206,96.107,573.822,570.319,0.0
56802.0,STARLINK-6070,PAYLOAD,2024-06-24 05:11:01,14.98326996,0.0002749,70.001,96.4426,276.2424,83.8421,3.3588e-06,-5.3e-07,0.0,0 STARLINK-6070,1 56802U 23078AM  24176.21599002 -.00000053  00000-0  33588-5 0  9990,2 56802  70.0010  96.4426 0002749 276.2424  83.8421 14.98326996 59783,6950.202,96.107,573.978,570.157,0.0
56802.0,STARLINK-6070,PAYLOAD,2024-06-24 21:12:22,14.98331202,0.0002584,70.0011,94.7615,257.4046,102.6824,-7.5217e-05,-9.9e-06,0.0,0 STARLINK-6070,1 56802U 23078AM  24176.88358866 -.00000990  00000-0 -75217-4 0  9999,2 56802  70.0011  94.7615 0002584 257.4046 102.6824 14.98331202 59887,6950.189,96.107,573.85,570.258,0.0
